[{"OBJECT_NAME":"STARLINK-2171","OBJECT_ID":"2021-017AJ","EPOCH":"2026-03-10T00:00:02.999808","MEAN_MOTION":15.70905931,"ECCENTRICITY":0.0002371,"INCLINATION":53.0436,"RA_OF_ASC_NODE":167.0252,"ARG_OF_PERICENTER":165.5816,"MEAN_ANOMALY":179.0332,"EPHEMERIS_TYPE":0,"CLASSIFICATION_TYPE":"U","NORAD_CAT_ID":47754,"ELEMENT_SET_NO":999,"REV_AT_EPOCH":590,"BSTAR":0.00011207161,"MEAN_MOTION_DOT":0.00013697,"MEAN_MOTION_DDOT":0},{"OBJECT_NAME":"STARLINK-11316 [DTC]","OBJECT_ID":"2024-204B","EPOCH":"2026-03-09T23:20:18.596544","MEAN_MOTION":15.69690119,"ECCENTRICITY":0.00012991,"INCLINATION":53.1591,"RA_OF_ASC_NODE":354.5328,"ARG_OF_PERICENTER":58.2233,"MEAN_ANOMALY":301.8912,"EPHEMERIS_TYPE":0,"CLASSIFICATION_TYPE":"U","NORAD_CAT_ID":61875,"ELEMENT_SET_NO":999,"REV_AT_EPOCH":7696,"BSTAR":9.28149e-6,"MEAN_MOTION_DOT":5.35e-6,"MEAN_MOTION_DDOT":0}]
